{
"type": "FeatureCollection",
"name": "river",
"crs": { "type": "name", "properties": { "name": "urn:ogc:def:crs:OGC:1.3:CRS84" } },
"features": [
{ "type": "Feature", "properties": { "scalerank": 2, "featurecla": "River", "name": "Mekong", "note": null, "min_zoom": 2.1, "name_alt": null, "min_label": 3.1, "name_en": "Mekong", "label": "Mekong", "wikidataid": "Q41179", "name_ar": "نهر ميكونغ", "name_bn": "মেকং নদী", "name_de": "Mekong", "name_es": "Mekong", "name_fr": "Mékong", "name_el": "Μεκόνγκ", "name_hi": "मीकांग नदी", "name_hu": "Mekong", "name_id": "Mekong", "name_it": "Mekong", "name_ja": "メコン川", "name_ko": "메콩강", "name_nl": "Mekong", "name_pl": "Mekong", "name_pt": "Mekong", "name_ru": "Меконг", "name_sv": "Mekong", "name_tr": "Mekong", "name_vi": "Mê Kông", "name_zh": "湄公河", "ne_id": 1159121023, "name_fa": "مکونگ", "name_he": "מקונג", "name_uk": "Меконг", "name_ur": "دریائے میکانگ", "name_zht": "湄公河" }, "geometry": { "type": "MultiLineString", "coordinates": [ [ [ 104.95114464710781, 11.590920721913847 ], [ 104.951299676738756, 11.5082901067031 ], [ 104.976156040568867, 11.471548163317152 ], [ 105.025662062654135, 11.453228868017902 ], [ 105.041268345258004, 11.427674872197656 ], [ 105.022871535592969, 11.394912014278077 ], [ 105.044058872319169, 11.211874090916638 ], [ 105.104933710022749, 10.878561103012544 ], [ 105.311019322084121, 10.535171209783528 ], [ 105.830987583610181, 10.000733547215475 ] ], [ [ 104.95114464710781, 11.590920721913847 ], [ 105.181053094224978, 11.446278388337021 ], [ 105.266164178134375, 11.356413071705958 ], [ 105.282183872787584, 11.274144191701112 ], [ 105.266060825346869, 11.180351467346384 ], [ 105.217795037610983, 11.074983221798277 ], [ 105.199088169583433, 10.978038235176484 ], [ 105.210043573152461, 10.889516506581572 ], [ 105.248594191668644, 10.825127671404971 ], [ 105.314843377919601, 10.784845893023601 ], [ 105.357683140264783, 10.72332510017327 ], [ 105.377216831491637, 10.640591132175075 ], [ 105.490129835923256, 10.529331773242802 ], [ 105.696525506347086, 10.389598700219892 ], [ 105.879460076921077, 10.29919078212896 ], [ 105.930981479711591, 10.283610337946811 ], [ 106.136395298204491, 10.22170197146886 ] ], [ [ 101.563651157774757, 17.820514634442873 ], [ 101.687467889831282, 17.889399319023426 ], [ 101.744105259650098, 17.952702948582271 ], [ 101.774801060020991, 18.03342153587522 ], [ 101.818622674297046, 18.064634101082959 ], [ 101.875466749690816, 18.046418158571214 ], [ 101.947452020594312, 18.081480618036153 ], [ 102.034578485209011, 18.169847317000119 ], [ 102.101499465028326, 18.210645860218335 ], [ 102.148214960052428, 18.203876247690744 ], [ 102.231672397563159, 18.148970038636435 ], [ 102.351871779359215, 18.045927232156089 ], [ 102.458790317619105, 17.984638983302489 ], [ 102.552531366029768, 17.965105292075634 ], [ 102.598213332279499, 17.926761379134405 ], [ 102.596042921943365, 17.86960724537812 ], [ 102.616816847519544, 17.833330389985576 ], [ 102.660638462694976, 17.817956651378381 ], [ 102.680068801134325, 17.824106146281679 ], [ 102.675211216524474, 17.851753038072275 ], [ 102.717637566820315, 17.892241522927975 ], [ 102.807451206607936, 17.945571600848723 ], [ 102.898660109476509, 17.976887518843967 ], [ 102.991367629112858, 17.986240952857713 ], [ 103.051312290829628, 18.028512274421985 ], [ 103.091199744372773, 18.138253009368952 ] ], [ [ 103.090379673283337, 18.137058620658877 ], [ 103.091199744372773, 18.138253009368952 ] ], [ [ 103.091199744372773, 18.138253009368952 ], [ 103.092343378044518, 18.141399441331203 ] ], [ [ 103.091199744372773, 18.138253009368952 ], [ 103.148515659869872, 18.221730454996532 ], [ 103.199675327454486, 18.259454250313468 ], [ 103.263185662588342, 18.278471177602796 ], [ 103.279618768391515, 18.304981187831629 ], [ 103.248922967121302, 18.338984280100476 ], [ 103.251713495081788, 18.373478298784505 ], [ 103.288248732892782, 18.408411567040218 ], [ 103.366951938581167, 18.423320217653952 ], [ 103.487978143576527, 18.418152573782322 ], [ 103.629674920461298, 18.382547511958137 ], [ 103.792248976609017, 18.316479193759847 ], [ 103.898857456506448, 18.295291856134327 ], [ 103.949552036996977, 18.319011338402618 ], [ 104.048719109899082, 18.216717840755791 ], [ 104.196203648279777, 17.98835968635052 ], [ 104.322655877766579, 17.815812079463967 ], [ 104.428179152046312, 17.698971665509987 ], [ 104.539231805403574, 17.609287217830911 ], [ 104.655917189726608, 17.546732896206265 ], [ 104.739684686499118, 17.461673489140253 ], [ 104.816062453119798, 17.300287990498418 ], [ 104.759011672151019, 17.077149155908842 ], [ 104.743508742334654, 16.884370225805299 ], [ 104.750640090068146, 16.64753713652965 ], [ 104.819369745017752, 16.466075344301771 ], [ 104.949904412758485, 16.339933173177428 ], [ 105.02576541544164, 16.238001410736558 ], [ 105.04715945864217, 16.160254217658064 ], [ 105.148755324298861, 16.093539944313022 ], [ 105.330656366098481, 16.037910264846914 ], [ 105.346421933877991, 16.0273945018692 ] ], [ [ 105.346440762857142, 16.027381942785716 ], [ 105.406310663206625, 15.987448228353117 ], [ 105.375614861936413, 15.942179674152669 ], [ 105.373186070081147, 15.889676418531963 ], [ 105.398920933054683, 15.829860948024361 ], [ 105.462017857038518, 15.780406602782534 ], [ 105.562373488345884, 15.741261705063664 ], [ 105.622111444487643, 15.69997223543038 ], [ 105.641025018090147, 15.656538193882568 ], [ 105.638906284597397, 15.585948187858605 ], [ 105.615651890322567, 15.488253892403236 ], [ 105.573742303064876, 15.413219712919442 ], [ 105.513177524623131, 15.360871486929625 ], [ 105.520308872356622, 15.331054185702158 ], [ 105.595239699052911, 15.323793646759441 ], [ 105.666139764338709, 15.273331610265643 ], [ 105.781688267099923, 15.120524400180955 ], [ 105.868091262202029, 15.032855333207124 ], [ 105.906538527031444, 14.944359443033932 ], [ 105.925865512683345, 14.825762030793157 ], [ 105.91475508038269, 14.712900702305603 ], [ 105.87331058111846, 14.605723781627262 ], [ 105.859512973644883, 14.494619452325935 ], [ 105.873258905174396, 14.379691067189071 ], [ 105.864112176735603, 14.267372341060764 ], [ 105.831969435541055, 14.157714951683715 ], [ 105.855172153871877, 14.070097560653949 ], [ 105.933720330828692, 14.004520168870727 ], [ 105.980539178640242, 13.947934474996089 ], [ 105.995732049194771, 13.900288804884497 ], [ 105.996248814031617, 13.852023017148554 ], [ 105.982296176927093, 13.803085435844253 ], [ 105.990667759009909, 13.75177073772943 ], [ 106.021466913067627, 13.698104763024446 ], [ 106.004620396114433, 13.60935049043286 ], [ 105.940024855362822, 13.485533759275597 ], [ 105.918165725068206, 13.405228583132669 ], [ 105.949326613432504, 13.350089830081629 ], [ 106.022655470573568, 13.195835679173285 ], [ 106.025032586484713, 13.060753485185217 ], [ 105.980900913846142, 12.89337352127103 ], [ 105.978368768304051, 12.682559515809032 ], [ 106.017539504444642, 12.428311468799279 ], [ 105.984569940050733, 12.289431057397451 ], [ 105.879666782496088, 12.26589244228245 ], [ 105.763394810222394, 12.264109605573879 ], [ 105.635754022330332, 12.284108384794195 ], [ 105.543356561056498, 12.204319973488055 ], [ 105.486099074512765, 12.02479604759958 ], [ 105.388947381416585, 11.936377671792172 ], [ 105.25200483635416, 11.938961493278327 ], [ 105.168030634006641, 11.920099595619888 ], [ 105.137128127161418, 11.879791978816797 ], [ 105.089585808938011, 11.854599717303188 ], [ 105.025352004291619, 11.844522813776905 ], [ 105.000030552468104, 11.821552639442814 ], [ 105.013363071948277, 11.785689195200234 ], [ 105.001787550754898, 11.74706106231821 ], [ 104.965097284212334, 11.705694078319084 ], [ 104.948199090415756, 11.66249258076806 ], [ 104.95114464710781, 11.590920721913847 ] ] ] } },
{ "type": "Feature", "properties": { "scalerank": 5, "featurecla": "River", "name": null, "note": "_untitled_79", "min_zoom": 4.7, "name_alt": null, "min_label": 5.7, "name_en": null, "label": null, "wikidataid": null, "name_ar": null, "name_bn": null, "name_de": null, "name_es": null, "name_fr": null, "name_el": null, "name_hi": null, "name_hu": null, "name_id": null, "name_it": null, "name_ja": null, "name_ko": null, "name_nl": null, "name_pl": null, "name_pt": null, "name_ru": null, "name_sv": null, "name_tr": null, "name_vi": null, "name_zh": null, "ne_id": 1159113739, "name_fa": null, "name_he": null, "name_uk": null, "name_ur": null, "name_zht": null }, "geometry": { "type": "MultiLineString", "coordinates": [ [ [ 106.464023879198749, 10.298312282985535 ], [ 106.385372349454428, 10.330015773709022 ], [ 106.137583856609751, 10.306141261809842 ] ], [ [ 106.137583856609751, 10.306141261809842 ], [ 105.930981479711591, 10.283610337946811 ] ], [ [ 106.137583856609751, 10.306141261809842 ], [ 106.183834262741073, 10.253431301513388 ], [ 106.222074822894797, 10.244697984224615 ], [ 106.292044712193785, 10.26175120675282 ], [ 106.329768507510664, 10.247410996919996 ], [ 106.359947543944031, 10.210875759109058 ], [ 106.407593214954943, 10.117160549120115 ], [ 106.467951287821734, 10.050420437353353 ], [ 106.518800897043832, 10.015487169097639 ], [ 106.579158969910566, 9.978951931286645 ], [ 106.649785981007255, 9.951912139548217 ] ] ] } },
{ "type": "Feature", "properties": { "scalerank": 2, "featurecla": "River", "name": "Lancang", "note": null, "min_zoom": 2.1, "name_alt": "Mekong", "min_label": 3.1, "name_en": "Mekong", "label": "Lancang", "wikidataid": "Q41179", "name_ar": "نهر ميكونغ", "name_bn": "মেকং নদী", "name_de": "Mekong", "name_es": "Mekong", "name_fr": "Mékong", "name_el": "Μεκόνγκ", "name_hi": "मीकांग नदी", "name_hu": "Mekong", "name_id": "Mekong", "name_it": "Mekong", "name_ja": "メコン川", "name_ko": "메콩강", "name_nl": "Mekong", "name_pl": "Mekong", "name_pt": "Mekong", "name_ru": "Меконг", "name_sv": "Mekong", "name_tr": "Mekong", "name_vi": "Mê Kông", "name_zh": "湄公河", "ne_id": 1159119517, "name_fa": "مکونگ", "name_he": "מקונג", "name_uk": "Меконг", "name_ur": "دریائے میکانگ", "name_zht": "湄公河" }, "geometry": { "type": "MultiLineString", "coordinates": [ [ [ 100.753603836084679, 21.30919779341416 ], [ 100.721991766752367, 21.272988993344551 ] ], [ [ 100.561762635654162, 21.030822561630028 ], [ 100.550829582327481, 21.014404451377846 ] ], [ [ 100.530107494632247, 20.961779353681631 ], [ 100.52610827531106, 20.941583295284797 ] ], [ [ 100.523950721253428, 20.919516983327298 ], [ 100.549346144908725, 20.884229437938245 ], [ 100.587063300540621, 20.881490521979895 ] ], [ [ 100.488257342249824, 20.813597667669367 ], [ 100.407442661549624, 20.82322540902544 ], [ 100.359370725037252, 20.806946919823563 ] ], [ [ 100.305943383631359, 20.778506038907079 ], [ 100.250094337821196, 20.730925358230408 ] ], [ [ 100.244955957280567, 20.720859303946469 ], [ 100.183890415810083, 20.589105333344492 ], [ 100.129630161902526, 20.372219346445718 ], [ 100.114954054386146, 20.257678534037154 ], [ 100.139758742272193, 20.245431220174737 ], [ 100.174123569746996, 20.272768052703498 ], [ 100.176753239021835, 20.276768243769524 ] ], [ [ 100.176799534081923, 20.276838666726324 ], [ 100.218048536810613, 20.339585679735364 ], [ 100.266004266183984, 20.3773094750523 ], [ 100.317990756967902, 20.385887762710126 ], [ 100.373129510918261, 20.340360826091285 ], [ 100.431523879023871, 20.240728664296455 ], [ 100.491571893528146, 20.184091294477696 ], [ 100.55327355353171, 20.170448716635008 ], [ 100.588516880149939, 20.073400377225653 ], [ 100.597301873382833, 19.893049628137874 ], [ 100.65269900885221, 19.825172633909972 ], [ 100.754811639345746, 19.869769395441324 ], [ 100.856717564264216, 19.87754669832151 ], [ 100.958520135495917, 19.848556220293403 ], [ 101.036654901302711, 19.847832749881547 ], [ 101.091328566360289, 19.87547964077288 ], [ 101.15344363841325, 19.872301540983358 ], [ 101.223103468450347, 19.838324286236855 ], [ 101.333277622664241, 19.821891181333001 ], [ 101.484069452043627, 19.822976386051437 ], [ 101.699353468487857, 19.889768174661583 ], [ 101.979233026582961, 20.022266547163497 ], [ 102.13705285000907, 20.086577867074936 ], [ 102.172812941464144, 20.082650458451951 ], [ 102.204645623396857, 20.05756155062511 ], [ 102.232550897605904, 20.011259466751028 ], [ 102.140980259531432, 19.903488267769376 ], [ 101.929830357285198, 19.734299627825635 ], [ 101.823480258906898, 19.604049180925017 ], [ 101.821723260620047, 19.512788601213003 ], [ 101.842238803777832, 19.451164455575224 ], [ 101.884923537391387, 19.419228420855006 ], [ 101.885802036534812, 19.372228704990789 ], [ 101.844770949319923, 19.310165309781269 ], [ 101.819036086346387, 19.180741685180692 ], [ 101.808494093927379, 18.984009508032443 ], [ 101.81598717686677, 18.855076808947615 ], [ 101.841463657421912, 18.793943589724961 ], [ 101.826374139654888, 18.698109646243211 ], [ 101.770460239348608, 18.567549140080814 ], [ 101.657702264547936, 18.422235012036253 ], [ 101.488100213454175, 18.262244778273953 ], [ 101.408311802148035, 18.118894354990516 ], [ 101.418543736204526, 17.992261257451105 ], [ 101.458644647432607, 17.901827500938452 ], [ 101.563651157774757, 17.820514634442873 ] ] ] } }
]
}
